J29P00K 15.81  0.15 J96BD  47.07294  226.33997  152.73500    4.40512  0.2181983               2.2267067
J69T01T 14.29  0.15 J998A 352.63773  355.50001   26.53847    2.37126  0.1837027  0.26350528   2.4095901  2 E1999-R16    42   7 1969-1999 0.82 M-v 38h Williams   0000         1969 TT1
J99S01F 17.73  0.15 J999J 357.45397  274.21382   90.21559    2.85131  0.1874066  0.26011305   2.4304944    E1999-S13     8   1    3 days 0.36         Marsden    0000         1999 SF1
